STARLINK-35286          
1 65803C 25218N   26125.73451389 -.00068446  00000+0 -47536-2 0  1253
2 65803  97.5284 349.0391 0001942  88.5625 132.5999 15.05678674    16
STARLINK-35266          
1 65804C 25218P   26125.65187500 -.00012407  00000+0 -86103-3 0  1256
2 65804  97.5285 348.9721 0002452  84.2266  79.2079 15.05676154    11
STARLINK-35273          
1 65805C 25218Q   26125.67479167 -.00036311  00000+0 -25215-2 0  1258
2 65805  97.5284 349.0010 0002363  88.0599 214.5803 15.05666408    16
STARLINK-35047          
1 65806C 25218R   26125.67687500 -.00039437  00000+0 -27386-2 0  1254
2 65806  97.5284 349.0350 0002740  65.6327 323.2770 15.05667156    15
STARLINK-35285          
1 65807C 25218S   26125.71576389 -.00056696  00000+0 -39367-2 0  1250
2 65807  97.5282 349.0599 0003237  83.5098 126.0638 15.05678208    17
STARLINK-34580          
1 65808C 25218T   26125.65048611 -.00017201  00000+0 -11943-2 0  1255
2 65808  97.5287 349.0157 0002618  81.4476 179.5143 15.05661195    13
STARLINK-35289          
1 65809C 25218U   26125.72618056 -.00066367  00000+0 -46094-2 0  1252
2 65809  97.5286 349.1081 0001541  85.4736 270.5102 15.05677001    17
STARLINK-35268          
1 65810C 25218V   26125.71437500 -.00057647  00000+0 -40032-2 0  1253
2 65810  97.5284 349.1170 0002183  86.8142 250.2205 15.05676881    19
STARLINK-35224          
1 65811C 25218W   26125.73104167 -.00055455  00000+0 -38497-2 0  1253
2 65811  97.5284 349.1263 0001766  87.1819 325.0751 15.05688590    11
STARLINK-35271          
1 65812C 25218X   26125.71506944 -.00054555  00000+0 -37882-2 0  1258
2 65812  97.5286 349.1371 0002208  67.3013 318.4783 15.05677654    12
STARLINK-35215          
1 65813C 25218Y   26125.64493056 -.00017035  00000+0 -11829-2 0  1255
2 65813  97.5294 349.0822 0002016  82.7567 313.1032 15.05658247    10
STARLINK-35157          
1 65814C 25218Z   26125.73590278 -.00067687  00000+0 -47006-2 0  1254
2 65814  97.5285 349.1770 0001809  77.0832 106.5415 15.05680877    18
STARLINK-35392          
1 65823C 25221A   26125.66437500  .00031574  00000+0  10642-2 0  1258
2 65823  53.1582 184.0485 0001408  77.2114 211.1206 15.30174388    19
STARLINK-35281          
1 65824C 25221B   26125.65326389  .00045078  00000+0  15194-2 0  1251
2 65824  53.1586 184.1347 0001301  78.2364 131.4090 15.30165967    10
STARLINK-35397          
1 65825C 25221C   26125.64145833  .00049958  00000+0  16840-2 0  1254
2 65825  53.1564 183.8543 0001198  79.7752 233.4830 15.30161936    19
STARLINK-35381          
1 65826C 25221D   26125.64840278  .00027638  00000+0  93186-3 0  1250
2 65826  53.1572 183.6717 0001243  83.8995 343.2534 15.30165116    11
STARLINK-35393          
1 65827C 25221E   26125.67548611  .00195420  00000+0  57671-2 0  1253
2 65827  53.1570 183.6855 0001260  84.0201  61.4404 15.34329519    13
STARLINK-35396          
1 65828C 25221F   26125.73243056  .00002177  00000+0  73392-4 0  1252
2 65828  53.1565 183.3963 0001236  82.5774  29.5430 15.30175908    17
STARLINK-35244          
1 65829C 25221G   26125.72409722  .00001516  00000+0  51108-4 0  1253
2 65829  53.1574 185.9346 0001252  79.1694 181.1982 15.30184131    17
STARLINK-35368          
1 65830C 25221H   26125.71298611  .00011712  00000+0  39482-3 0  1256
2 65830  53.1588 183.9132 0001259  82.6731  67.0604 15.30178160    11
STARLINK-35337          
1 65831C 25221J   26125.69284722  .02181600  00000+0  68151-1 0  1251
2 65831  53.1587 183.5090 0001375  80.2514 209.3034 15.31541713    19
STARLINK-35277          
1 65832C 25221K   26125.64701389  .00033485  00000+0  11288-2 0  1255
2 65832  53.1571 183.7577 0001227  75.3619 303.4192 15.30169186    12
STARLINK-35345          
1 65833C 25221L   26125.65534722  .00029571  00000+0  99698-3 0  1255
2 65833  53.1574 183.6032 0001236  80.8497  42.0320 15.30166448    13
STARLINK-35320          
1 65834C 25221M   26125.70673611  .00011997  00000+0  40449-3 0  1256
2 65834  53.1578 183.8035 0001368  83.0133 102.0737 15.30172768    12
STARLINK-35349          
1 65835C 25221N   26125.67618056  .00032248  00000+0  10870-2 0  1251
2 65835  53.1585 184.0151 0001273  77.8357 263.9337 15.30171674    15
STARLINK-35356          
1 65836C 25221P   26125.68659722  .00025211  00000+0  84991-3 0  1256
2 65836  53.1577 183.4232 0001114  78.4624 234.1026 15.30171319    19
STARLINK-35314          
1 65837C 25221Q   26125.69284722  .00020782  00000+0  70046-3 0  1256
2 65837  53.1564 183.7061 0001234  86.3029 103.6619 15.30179171    11
STARLINK-35324          
1 65838C 25221R   26125.64701389  .00041162  00000+0  13876-2 0  1257
2 65838  53.1587 184.1844 0001273  82.2646  81.3034 15.30164087    17
STARLINK-35102          
1 65839C 25221S   26125.68173611  .00021823  00000+0  73575-3 0  1258
2 65839  53.1562 183.7231 0001190  79.1978  66.9783 15.30171131    15
STARLINK-35364          
1 65840C 25221T   26125.72062500 -.00020891  00000+0 -61767-3 0  1255
2 65840  53.1590 183.4510 0000702  41.9015   4.6952 15.34378833    11
STARLINK-35298          
1 65842C 25221V   26125.65256944  .00039742  00000+0  13396-2 0  1253
2 65842  53.1565 183.7878 0001158  80.0728 300.2335 15.30168500    10
STARLINK-35301          
1 65843C 25221W   26125.71090278  .00014363  00000+0  48380-3 0  1251
2 65843  53.1571 183.4114 0001195  68.4079 325.7802 15.30202504    12
STARLINK-35148          
1 65844C 25221X   26125.71576389  .00008386  00000+0  25461-3 0  1257
2 65844  53.1568 183.5542 0001135  77.9048 260.5128 15.33527433    11
STARLINK-35302          
1 65845C 25221Y   26125.71923611  .00009561  00000+0  32239-3 0  1259
2 65845  53.1570 183.4067 0001245  77.9606 344.7063 15.30170543    14
STARLINK-35290          
1 65846C 25221Z   26125.70256944  .00016394  00000+0  55269-3 0  1257
2 65846  53.1571 183.4039 0001236  72.9854 298.5350 15.30174920    13
STARLINK-35262          
1 65847C 25221AA  26125.68451389  .00021944  00000+0  73969-3 0  1259
2 65847  53.1587 184.0644 0001186  80.6322 260.5433 15.30176978    16
STARLINK-35308          
1 65848C 25221AB  26125.73034722  .00002113  00000+0  71225-4 0  1255
2 65848  53.1571 183.2975 0001100  78.6840  74.3035 15.30179435    16
STARLINK-35231          
1 65849C 25221AC  26125.70187500  .00021245  00000+0  71623-3 0  1254
2 65849  53.1584 184.0181 0001229  78.1959 341.2227 15.30171590    10
STARLINK-35252          
1 65850C 25221AD  26125.72131944  .00002082  00000+0  70184-4 0  1259
2 65850  53.1588 183.8592 0001254  79.0611 122.4242 15.30180719    11
STARLINK-35208          
1 65854C 25223A   26125.67270833 -.00047920  00000+0 -16174-2 0  1259
2 65854  53.1604  29.2054 0001651  93.1977 284.6234 15.30168139    17
STARLINK-35200          
1 65855C 25223B   26125.70673611  .00034136  00000+0  11517-2 0  1254
2 65855  53.1587  29.3759 0001284  91.9994 304.7531 15.30140269    16
STARLINK-35459          
1 65856C 25223C   26125.72131944  .01386100  00000+0  41530-1 0  1254
2 65856  53.1602  29.4632 0000924  91.4215 308.6743 15.33258440    19
STARLINK-35489          
1 65857C 25223D   26125.70465278  .00009551  00000+0  32225-3 0  1257
2 65857  53.1606  29.6951 0001299  87.2079 141.0213 15.30152955    19
STARLINK-35199          
1 65858C 25223E   26125.66923611  .00033127  00000+0  11175-2 0  1259
2 65858  53.1588  29.3907 0001273  84.2639 187.2314 15.30144598    16
STARLINK-35408          
1 65859C 25223F   26125.71715278  .00047368  00000+0  15982-2 0  1256
2 65859  53.1610  29.6281 0001537 108.3219 194.6140 15.30132980    17
STARLINK-35303          
1 65860C 25223G   26125.72965278  .00035493  00000+0  11975-2 0  1250
2 65860  53.1596  29.3616 0001257  80.4403  36.1032 15.30140988    12
STARLINK-35258          
1 65861C 25223H   26125.71645833  .00025467  00000+0  85923-3 0  1257
2 65861  53.1602  29.4668 0001319  81.6552 298.8914 15.30145563    16
STARLINK-35386          
1 65862C 25223J   26125.70881944  .00042252  00000+0  14256-2 0  1253
2 65862  53.1607  29.6533 0001401 108.6574 154.1665 15.30134994    14
STARLINK-35469          
1 65863C 25223K   26125.72687500  .00021786  00000+0  73512-3 0  1258
2 65863  53.1606  29.5139 0001332  85.1153 306.3133 15.30143361    19
STARLINK-35471          
1 65864C 25223L   26125.73590278  .00045022  00000+0  15185-2 0  1255
2 65864  53.1595  28.9986 0001423 106.7726 212.8800 15.30144576    18
STARLINK-35475          
1 65865C 25223M   26125.71090278  .00007019  00000+0  23682-3 0  1255
2 65865  53.1607  28.9994 0001231  82.2046 157.8337 15.30153629    14
STARLINK-35312          
1 65866C 25223N   26125.69979167  .00039079  00000+0  13187-2 0  1255
2 65866  53.1604  29.6117 0001401 107.7315 146.0592 15.30133607    15
STARLINK-35456          
1 65867C 25223P   26125.67895833  .00044309  00000+0  14947-2 0  1258
2 65867  53.1585  29.3516 0001236  88.2528 231.0207 15.30139864    18
STARLINK-35450          
1 65868C 25223Q   26125.66715278 -.00019857  00000+0 -67002-3 0  1255
2 65868  53.1599  29.6866 0001258  79.8067  34.8024 15.30163947    18
STARLINK-35441          
1 65869C 25223R   26125.67201389 -.00014352  00000+0 -48423-3 0  1251
2 65869  53.1605  29.7325 0001243  87.9425  18.5578 15.30164056    15
STARLINK-35433          
1 65870C 25223S   26125.72201389  .00052685  00000+0  17793-2 0  1253
2 65870  53.1589  29.1086 0001530  95.4703 124.4545 15.30099565    11
STARLINK-35465          
1 65871C 25223T   26125.70604167  .00034908  00000+0  11780-2 0  1251
2 65871  53.1586  29.3206 0001290  85.0365 336.9887 15.30133630    18
STARLINK-34108          
1 65872C 25223U   26125.68034722  .00043977  00000+0  14851-2 0  1251
2 65872  53.1590  29.2894 0001468  91.9307 264.1363 15.30106021    10
STARLINK-35423          
1 65873C 25223V   26125.65743056 -.00042408  00000+0 -14308-2 0  1253
2 65873  53.1602  29.2804 0001351  82.4023 205.4613 15.30178059    13
